KUIPER-00061            
1 64521U 25134X   25210.12271733  .00030719  00000+0  88076-3 0  9990
2 64521  51.8742 159.0311 0004597 232.4479 127.6090 15.35619544  6715
KUIPER-00062            
1 64522U 25134Y   25210.91668981 -.00185602  00000+0 -59584-2 0  9998
2 64522  51.8769 155.1803 0004382 234.9589 216.2203 15.32500832  6389
KUIPER-00063            
1 64523U 25134Z   25210.55877891  .00032744  00000+0  91716-3 0  9991
2 64523  51.8746 156.7120 0002862 194.1219 165.9687 15.36322518  6330
KUIPER-00064            
1 64524U 25134AA  25210.54481142  .00032145  00000+0  87740-3 0  9998
2 64524  51.8766 156.6210 0001434 140.9414 219.1677 15.37138447  6633
KUIPER-00065            
1 64525U 25134AB  25210.91668981 -.01179241  00000+0 -42763-1 0  9994
2 64525  51.8719 155.4213 0007699 233.7671  77.2259 15.30891637  6625
KUIPER-00066            
1 64526U 25134AC  25210.55072361  .00031602  00000+0  87125-3 0  9994
2 64526  51.8763 156.6616 0001279 170.4636 189.6375 15.36835823  6797
KUIPER-00069            
1 64816U 25151A   25210.47753200  .00020517  00000+0  59216-3 0  9997
2 64816  51.8776 223.9032 0005080 181.7955 178.3014 15.35644495  3206
KUIPER-00070            
1 64817U 25151B   25210.83335648 -.01236188  00000+0 -40838-1 0  9994
2 64817  51.8780 222.2706 0004895 210.0937 279.8754 15.34020511  3250
