<?xml version="1.0" encoding="UTF-8"?>
<ndm xmlns:xsi="http://www.w3.org/2001/XMLSchema-instance" xsi:noNamespaceSchemaLocation="https://sanaregistry.org/r/ndmxml_unqualified/ndmxml-2.0.0-master-2.0.xsd">
<omm id="CCSDS_OMM_VERS" version="2.0">
<header><CREATION_DATE/><ORIGINATOR/></header><body><segment><metadata><OBJECT_NAME>KUIPER-00061</OBJECT_NAME><OBJECT_ID>2025-134X</OBJECT_ID><CENTER_NAME>EARTH</CENTER_NAME><REF_FRAME>TEME</REF_FRAME><TIME_SYSTEM>UTC</TIME_SYSTEM><MEAN_ELEMENT_THEORY>SGP4</MEAN_ELEMENT_THEORY></metadata><data><meanElements><EPOCH>2025-07-29T02:56:42.777312</EPOCH><MEAN_MOTION>15.35619544</MEAN_MOTION><ECCENTRICITY>.0004597</ECCENTRICITY><INCLINATION>51.8742</INCLINATION><RA_OF_ASC_NODE>159.0311</RA_OF_ASC_NODE><ARG_OF_PERICENTER>232.4479</ARG_OF_PERICENTER><MEAN_ANOMALY>127.6090</MEAN_ANOMALY></meanElements><tleParameters><EPHEMERIS_TYPE>0</EPHEMERIS_TYPE><CLASSIFICATION_TYPE>U</CLASSIFICATION_TYPE><NORAD_CAT_ID>64521</NORAD_CAT_ID><ELEMENT_SET_NO>999</ELEMENT_SET_NO><REV_AT_EPOCH>671</REV_AT_EPOCH><BSTAR>.88076E-3</BSTAR><MEAN_MOTION_DOT>.30719E-3</MEAN_MOTION_DOT><MEAN_MOTION_DDOT>0</MEAN_MOTION_DDOT></tleParameters></data></segment></body></omm>
<omm id="CCSDS_OMM_VERS" version="2.0">
<header><CREATION_DATE/><ORIGINATOR/></header><body><segment><metadata><OBJECT_NAME>KUIPER-00062</OBJECT_NAME><OBJECT_ID>2025-134Y</OBJECT_ID><CENTER_NAME>EARTH</CENTER_NAME><REF_FRAME>TEME</REF_FRAME><TIME_SYSTEM>UTC</TIME_SYSTEM><MEAN_ELEMENT_THEORY>SGP4</MEAN_ELEMENT_THEORY></metadata><data><meanElements><EPOCH>2025-07-29T22:00:01.999584</EPOCH><MEAN_MOTION>15.32500832</MEAN_MOTION><ECCENTRICITY>.0004382</ECCENTRICITY><INCLINATION>51.8769</INCLINATION><RA_OF_ASC_NODE>155.1803</RA_OF_ASC_NODE><ARG_OF_PERICENTER>234.9589</ARG_OF_PERICENTER><MEAN_ANOMALY>216.2203</MEAN_ANOMALY></meanElements><tleParameters><EPHEMERIS_TYPE>0</EPHEMERIS_TYPE><CLASSIFICATION_TYPE>U</CLASSIFICATION_TYPE><NORAD_CAT_ID>64522</NORAD_CAT_ID><ELEMENT_SET_NO>999</ELEMENT_SET_NO><REV_AT_EPOCH>638</REV_AT_EPOCH><BSTAR>-.59584E-2</BSTAR><MEAN_MOTION_DOT>-.185602E-2</MEAN_MOTION_DOT><MEAN_MOTION_DDOT>0</MEAN_MOTION_DDOT></tleParameters></data></segment></body></omm>
<omm id="CCSDS_OMM_VERS" version="2.0">
<header><CREATION_DATE/><ORIGINATOR/></header><body><segment><metadata><OBJECT_NAME>KUIPER-00063</OBJECT_NAME><OBJECT_ID>2025-134Z</OBJECT_ID><CENTER_NAME>EARTH</CENTER_NAME><REF_FRAME>TEME</REF_FRAME><TIME_SYSTEM>UTC</TIME_SYSTEM><MEAN_ELEMENT_THEORY>SGP4</MEAN_ELEMENT_THEORY></metadata><data><meanElements><EPOCH>2025-07-29T13:24:38.497824</EPOCH><MEAN_MOTION>15.36322518</MEAN_MOTION><ECCENTRICITY>.0002862</ECCENTRICITY><INCLINATION>51.8746</INCLINATION><RA_OF_ASC_NODE>156.7120</RA_OF_ASC_NODE><ARG_OF_PERICENTER>194.1219</ARG_OF_PERICENTER><MEAN_ANOMALY>165.9687</MEAN_ANOMALY></meanElements><tleParameters><EPHEMERIS_TYPE>0</EPHEMERIS_TYPE><CLASSIFICATION_TYPE>U</CLASSIFICATION_TYPE><NORAD_CAT_ID>64523</NORAD_CAT_ID><ELEMENT_SET_NO>999</ELEMENT_SET_NO><REV_AT_EPOCH>633</REV_AT_EPOCH><BSTAR>.91716E-3</BSTAR><MEAN_MOTION_DOT>.32744E-3</MEAN_MOTION_DOT><MEAN_MOTION_DDOT>0</MEAN_MOTION_DDOT></tleParameters></data></segment></body></omm>
<omm id="CCSDS_OMM_VERS" version="2.0">
<header><CREATION_DATE/><ORIGINATOR/></header><body><segment><metadata><OBJECT_NAME>KUIPER-00064</OBJECT_NAME><OBJECT_ID>2025-134AA</OBJECT_ID><CENTER_NAME>EARTH</CENTER_NAME><REF_FRAME>TEME</REF_FRAME><TIME_SYSTEM>UTC</TIME_SYSTEM><MEAN_ELEMENT_THEORY>SGP4</MEAN_ELEMENT_THEORY></metadata><data><meanElements><EPOCH>2025-07-29T13:04:31.706688</EPOCH><MEAN_MOTION>15.37138447</MEAN_MOTION><ECCENTRICITY>.0001434</ECCENTRICITY><INCLINATION>51.8766</INCLINATION><RA_OF_ASC_NODE>156.6210</RA_OF_ASC_NODE><ARG_OF_PERICENTER>140.9414</ARG_OF_PERICENTER><MEAN_ANOMALY>219.1677</MEAN_ANOMALY></meanElements><tleParameters><EPHEMERIS_TYPE>0</EPHEMERIS_TYPE><CLASSIFICATION_TYPE>U</CLASSIFICATION_TYPE><NORAD_CAT_ID>64524</NORAD_CAT_ID><ELEMENT_SET_NO>999</ELEMENT_SET_NO><REV_AT_EPOCH>663</REV_AT_EPOCH><BSTAR>.8774E-3</BSTAR><MEAN_MOTION_DOT>.32145E-3</MEAN_MOTION_DOT><MEAN_MOTION_DDOT>0</MEAN_MOTION_DDOT></tleParameters></data></segment></body></omm>
<omm id="CCSDS_OMM_VERS" version="2.0">
<header><CREATION_DATE/><ORIGINATOR/></header><body><segment><metadata><OBJECT_NAME>KUIPER-00065</OBJECT_NAME><OBJECT_ID>2025-134AB</OBJECT_ID><CENTER_NAME>EARTH</CENTER_NAME><REF_FRAME>TEME</REF_FRAME><TIME_SYSTEM>UTC</TIME_SYSTEM><MEAN_ELEMENT_THEORY>SGP4</MEAN_ELEMENT_THEORY></metadata><data><meanElements><EPOCH>2025-07-29T22:00:01.999584</EPOCH><MEAN_MOTION>15.30891637</MEAN_MOTION><ECCENTRICITY>.0007699</ECCENTRICITY><INCLINATION>51.8719</INCLINATION><RA_OF_ASC_NODE>155.4213</RA_OF_ASC_NODE><ARG_OF_PERICENTER>233.7671</ARG_OF_PERICENTER><MEAN_ANOMALY>77.2259</MEAN_ANOMALY></meanElements><tleParameters><EPHEMERIS_TYPE>0</EPHEMERIS_TYPE><CLASSIFICATION_TYPE>U</CLASSIFICATION_TYPE><NORAD_CAT_ID>64525</NORAD_CAT_ID><ELEMENT_SET_NO>999</ELEMENT_SET_NO><REV_AT_EPOCH>662</REV_AT_EPOCH><BSTAR>-.42763E-1</BSTAR><MEAN_MOTION_DOT>-.1179241E-1</MEAN_MOTION_DOT><MEAN_MOTION_DDOT>0</MEAN_MOTION_DDOT></tleParameters></data></segment></body></omm>
<omm id="CCSDS_OMM_VERS" version="2.0">
<header><CREATION_DATE/><ORIGINATOR/></header><body><segment><metadata><OBJECT_NAME>KUIPER-00066</OBJECT_NAME><OBJECT_ID>2025-134AC</OBJECT_ID><CENTER_NAME>EARTH</CENTER_NAME><REF_FRAME>TEME</REF_FRAME><TIME_SYSTEM>UTC</TIME_SYSTEM><MEAN_ELEMENT_THEORY>SGP4</MEAN_ELEMENT_THEORY></metadata><data><meanElements><EPOCH>2025-07-29T13:13:02.519904</EPOCH><MEAN_MOTION>15.36835823</MEAN_MOTION><ECCENTRICITY>.0001279</ECCENTRICITY><INCLINATION>51.8763</INCLINATION><RA_OF_ASC_NODE>156.6616</RA_OF_ASC_NODE><ARG_OF_PERICENTER>170.4636</ARG_OF_PERICENTER><MEAN_ANOMALY>189.6375</MEAN_ANOMALY></meanElements><tleParameters><EPHEMERIS_TYPE>0</EPHEMERIS_TYPE><CLASSIFICATION_TYPE>U</CLASSIFICATION_TYPE><NORAD_CAT_ID>64526</NORAD_CAT_ID><ELEMENT_SET_NO>999</ELEMENT_SET_NO><REV_AT_EPOCH>679</REV_AT_EPOCH><BSTAR>.87125E-3</BSTAR><MEAN_MOTION_DOT>.31602E-3</MEAN_MOTION_DOT><MEAN_MOTION_DDOT>0</MEAN_MOTION_DDOT></tleParameters></data></segment></body></omm>
<omm id="CCSDS_OMM_VERS" version="2.0">
<header><CREATION_DATE/><ORIGINATOR/></header><body><segment><metadata><OBJECT_NAME>KUIPER-00069</OBJECT_NAME><OBJECT_ID>2025-151A</OBJECT_ID><CENTER_NAME>EARTH</CENTER_NAME><REF_FRAME>TEME</REF_FRAME><TIME_SYSTEM>UTC</TIME_SYSTEM><MEAN_ELEMENT_THEORY>SGP4</MEAN_ELEMENT_THEORY></metadata><data><meanElements><EPOCH>2025-07-29T11:27:38.764800</EPOCH><MEAN_MOTION>15.35644495</MEAN_MOTION><ECCENTRICITY>.000508</ECCENTRICITY><INCLINATION>51.8776</INCLINATION><RA_OF_ASC_NODE>223.9032</RA_OF_ASC_NODE><ARG_OF_PERICENTER>181.7955</ARG_OF_PERICENTER><MEAN_ANOMALY>178.3014</MEAN_ANOMALY></meanElements><tleParameters><EPHEMERIS_TYPE>0</EPHEMERIS_TYPE><CLASSIFICATION_TYPE>U</CLASSIFICATION_TYPE><NORAD_CAT_ID>64816</NORAD_CAT_ID><ELEMENT_SET_NO>999</ELEMENT_SET_NO><REV_AT_EPOCH>320</REV_AT_EPOCH><BSTAR>.59216E-3</BSTAR><MEAN_MOTION_DOT>.20517E-3</MEAN_MOTION_DOT><MEAN_MOTION_DDOT>0</MEAN_MOTION_DDOT></tleParameters></data></segment></body></omm>
<omm id="CCSDS_OMM_VERS" version="2.0">
<header><CREATION_DATE/><ORIGINATOR/></header><body><segment><metadata><OBJECT_NAME>KUIPER-00070</OBJECT_NAME><OBJECT_ID>2025-151B</OBJECT_ID><CENTER_NAME>EARTH</CENTER_NAME><REF_FRAME>TEME</REF_FRAME><TIME_SYSTEM>UTC</TIME_SYSTEM><MEAN_ELEMENT_THEORY>SGP4</MEAN_ELEMENT_THEORY></metadata><data><meanElements><EPOCH>2025-07-29T20:00:01.999872</EPOCH><MEAN_MOTION>15.34020511</MEAN_MOTION><ECCENTRICITY>.0004895</ECCENTRICITY><INCLINATION>51.8780</INCLINATION><RA_OF_ASC_NODE>222.2706</RA_OF_ASC_NODE><ARG_OF_PERICENTER>210.0937</ARG_OF_PERICENTER><MEAN_ANOMALY>279.8754</MEAN_ANOMALY></meanElements><tleParameters><EPHEMERIS_TYPE>0</EPHEMERIS_TYPE><CLASSIFICATION_TYPE>U</CLASSIFICATION_TYPE><NORAD_CAT_ID>64817</NORAD_CAT_ID><ELEMENT_SET_NO>999</ELEMENT_SET_NO><REV_AT_EPOCH>325</REV_AT_EPOCH><BSTAR>-.40838E-1</BSTAR><MEAN_MOTION_DOT>-.1236188E-1</MEAN_MOTION_DOT><MEAN_MOTION_DDOT>0</MEAN_MOTION_DDOT></tleParameters></data></segment></body></omm>

</ndm>
